{
  "norad_id": 62388,
  "name": "GITAI-SC1",
  "history": [
    {
      "epoch": "2026-03-28T12:39:31.508928Z",
      "apogee_km": 504.98282541503704,
      "perigee_km": 503.70364763827547,
      "latitude_deg": 3.772631555391116e-05,
      "longitude_deg": 11.682638040819503,
      "height_km": 504.1046153117082,
      "semi_major_axis_km": 6882.480236526656,
      "eccentricity": 9.293e-05,
      "inclination_deg": 45.004,
      "raan_deg": 27.5105,
      "arg_perigee_deg": 291.9041,
      "mean_anomaly_deg": 68.1741,
      "mean_motion_rev_day": 15.20496072
    },
    {
      "epoch": "2026-03-30T02:30:04.378176Z",
      "apogee_km": 504.82042959094633,
      "perigee_km": 503.6903407612999,
      "latitude_deg": 1.4503705531144048e-07,
      "longitude_deg": 153.97701115667954,
      "height_km": 504.0600410875314,
      "semi_major_axis_km": 6882.392385176123,
      "eccentricity": 8.21e-05,
      "inclination_deg": 45.0036,
      "raan_deg": 18.996,
      "arg_perigee_deg": 290.209,
      "mean_anomaly_deg": 69.8702,
      "mean_motion_rev_day": 15.20525185
    },
    {
      "epoch": "2026-03-30T02:30:04.379040Z",
      "apogee_km": 504.82036076702207,
      "perigee_km": 503.6904095852242,
      "latitude_deg": -6.203628014892683e-07,
      "longitude_deg": 153.97700678573884,
      "height_km": 504.0600648596943,
      "semi_major_axis_km": 6882.392385176123,
      "eccentricity": 8.209e-05,
      "inclination_deg": 45.0036,
      "raan_deg": 18.996,
      "arg_perigee_deg": 290.209,
      "mean_anomaly_deg": 69.8702,
      "mean_motion_rev_day": 15.20525185
    },
    {
      "epoch": "2026-03-30T11:57:42.185088Z",
      "apogee_km": 504.7833206470623,
      "perigee_km": 503.6839307633127,
      "latitude_deg": -5.36533955280739e-05,
      "longitude_deg": 9.552300308953205,
      "height_km": 504.05450403554784,
      "semi_major_axis_km": 6882.370625705187,
      "eccentricity": 7.987e-05,
      "inclination_deg": 45.0036,
      "raan_deg": 16.8674,
      "arg_perigee_deg": 288.9996,
      "mean_anomaly_deg": 71.0797,
      "mean_motion_rev_day": 15.20532396
    },
    {
      "epoch": "2026-03-30T19:50:43.562112Z",
      "apogee_km": 504.7587944262941,
      "perigee_km": 503.6705569793321,
      "latitude_deg": -7.764880734195465e-07,
      "longitude_deg": -110.80105703732568,
      "height_km": 504.04863465339145,
      "semi_major_axis_km": 6882.351675702813,
      "eccentricity": 7.906e-05,
      "inclination_deg": 45.0035,
      "raan_deg": 15.0935,
      "arg_perigee_deg": 287.7473,
      "mean_anomaly_deg": 72.3321,
      "mean_motion_rev_day": 15.20538676
    },
    {
      "epoch": "2026-03-31T11:36:46.027584Z",
      "apogee_km": 504.6980058134923,
      "perigee_km": 503.66744725764147,
      "latitude_deg": -3.767270546274307e-05,
      "longitude_deg": 8.493392236255835,
      "height_km": 504.0266225629698,
      "semi_major_axis_km": 6882.319726535567,
      "eccentricity": 7.487e-05,
      "inclination_deg": 45.0036,
      "raan_deg": 11.5458,
      "arg_perigee_deg": 287.6108,
      "mean_anomaly_deg": 72.469,
      "mean_motion_rev_day": 15.20549264
    }
  ]
}